<?xml version="1.0" encoding="UTF-8"?>
<ndm xmlns:xsi="http://www.w3.org/2001/XMLSchema-instance" xsi:noNamespaceSchemaLocation="https://sanaregistry.org/r/ndmxml_unqualified/ndmxml-2.0.0-master-2.0.xsd">
<omm id="CCSDS_OMM_VERS" version="2.0">
<header><CREATION_DATE/><ORIGINATOR/></header><body><segment><metadata><OBJECT_NAME>ONEWEB-0443</OBJECT_NAME><OBJECT_ID>2022-012R</OBJECT_ID><CENTER_NAME>EARTH</CENTER_NAME><REF_FRAME>TEME</REF_FRAME><TIME_SYSTEM>UTC</TIME_SYSTEM><MEAN_ELEMENT_THEORY>SGP4</MEAN_ELEMENT_THEORY></metadata><data><meanElements><EPOCH>2024-07-02T21:24:36.828288</EPOCH><MEAN_MOTION>13.17649633</MEAN_MOTION><ECCENTRICITY>.0002586</ECCENTRICITY><INCLINATION>87.9180</INCLINATION><RA_OF_ASC_NODE>148.1065</RA_OF_ASC_NODE><ARG_OF_PERICENTER>82.3157</ARG_OF_PERICENTER><MEAN_ANOMALY>277.8268</MEAN_ANOMALY></meanElements><tleParameters><EPHEMERIS_TYPE>0</EPHEMERIS_TYPE><CLASSIFICATION_TYPE>U</CLASSIFICATION_TYPE><NORAD_CAT_ID>51637</NORAD_CAT_ID><ELEMENT_SET_NO>999</ELEMENT_SET_NO><REV_AT_EPOCH>11965</REV_AT_EPOCH><BSTAR>.69432E-4</BSTAR><MEAN_MOTION_DOT>.4E-6</MEAN_MOTION_DOT><MEAN_MOTION_DDOT>0</MEAN_MOTION_DDOT></tleParameters></data></segment></body></omm>
<omm id="CCSDS_OMM_VERS" version="2.0">
<header><CREATION_DATE/><ORIGINATOR/></header><body><segment><metadata><OBJECT_NAME>ONEWEB-0444</OBJECT_NAME><OBJECT_ID>2022-012S</OBJECT_ID><CENTER_NAME>EARTH</CENTER_NAME><REF_FRAME>TEME</REF_FRAME><TIME_SYSTEM>UTC</TIME_SYSTEM><MEAN_ELEMENT_THEORY>SGP4</MEAN_ELEMENT_THEORY></metadata><data><meanElements><EPOCH>2024-07-02T22:11:00.141216</EPOCH><MEAN_MOTION>13.10371455</MEAN_MOTION><ECCENTRICITY>.0002221</ECCENTRICITY><INCLINATION>87.8934</INCLINATION><RA_OF_ASC_NODE>178.3128</RA_OF_ASC_NODE><ARG_OF_PERICENTER>84.8063</ARG_OF_PERICENTER><MEAN_ANOMALY>275.3318</MEAN_ANOMALY></meanElements><tleParameters><EPHEMERIS_TYPE>0</EPHEMERIS_TYPE><CLASSIFICATION_TYPE>U</CLASSIFICATION_TYPE><NORAD_CAT_ID>51638</NORAD_CAT_ID><ELEMENT_SET_NO>999</ELEMENT_SET_NO><REV_AT_EPOCH>11579</REV_AT_EPOCH><BSTAR>-.13271E-2</BSTAR><MEAN_MOTION_DOT>-.451E-5</MEAN_MOTION_DOT><MEAN_MOTION_DDOT>0</MEAN_MOTION_DDOT></tleParameters></data></segment></body></omm>
<omm id="CCSDS_OMM_VERS" version="2.0">
<header><CREATION_DATE/><ORIGINATOR/></header><body><segment><metadata><OBJECT_NAME>ONEWEB-0445</OBJECT_NAME><OBJECT_ID>2022-012T</OBJECT_ID><CENTER_NAME>EARTH</CENTER_NAME><REF_FRAME>TEME</REF_FRAME><TIME_SYSTEM>UTC</TIME_SYSTEM><MEAN_ELEMENT_THEORY>SGP4</MEAN_ELEMENT_THEORY></metadata><data><meanElements><EPOCH>2024-07-02T22:42:04.486464</EPOCH><MEAN_MOTION>13.10375045</MEAN_MOTION><ECCENTRICITY>.0001769</ECCENTRICITY><INCLINATION>87.8936</INCLINATION><RA_OF_ASC_NODE>178.2798</RA_OF_ASC_NODE><ARG_OF_PERICENTER>91.8248</ARG_OF_PERICENTER><MEAN_ANOMALY>268.3082</MEAN_ANOMALY></meanElements><tleParameters><EPHEMERIS_TYPE>0</EPHEMERIS_TYPE><CLASSIFICATION_TYPE>U</CLASSIFICATION_TYPE><NORAD_CAT_ID>51639</NORAD_CAT_ID><ELEMENT_SET_NO>999</ELEMENT_SET_NO><REV_AT_EPOCH>11580</REV_AT_EPOCH><BSTAR>-.10948E-2</BSTAR><MEAN_MOTION_DOT>-.37E-5</MEAN_MOTION_DOT><MEAN_MOTION_DDOT>0</MEAN_MOTION_DDOT></tleParameters></data></segment></body></omm>
<omm id="CCSDS_OMM_VERS" version="2.0">
<header><CREATION_DATE/><ORIGINATOR/></header><body><segment><metadata><OBJECT_NAME>ONEWEB-0446</OBJECT_NAME><OBJECT_ID>2022-012U</OBJECT_ID><CENTER_NAME>EARTH</CENTER_NAME><REF_FRAME>TEME</REF_FRAME><TIME_SYSTEM>UTC</TIME_SYSTEM><MEAN_ELEMENT_THEORY>SGP4</MEAN_ELEMENT_THEORY></metadata><data><meanElements><EPOCH>2024-07-02T22:08:36.649824</EPOCH><MEAN_MOTION>13.10370152</MEAN_MOTION><ECCENTRICITY>.0001697</ECCENTRICITY><INCLINATION>87.8938</INCLINATION><RA_OF_ASC_NODE>178.3102</RA_OF_ASC_NODE><ARG_OF_PERICENTER>89.3816</ARG_OF_PERICENTER><MEAN_ANOMALY>270.7506</MEAN_ANOMALY></meanElements><tleParameters><EPHEMERIS_TYPE>0</EPHEMERIS_TYPE><CLASSIFICATION_TYPE>U</CLASSIFICATION_TYPE><NORAD_CAT_ID>51640</NORAD_CAT_ID><ELEMENT_SET_NO>999</ELEMENT_SET_NO><REV_AT_EPOCH>11578</REV_AT_EPOCH><BSTAR>-.11411E-2</BSTAR><MEAN_MOTION_DOT>-.386E-5</MEAN_MOTION_DOT><MEAN_MOTION_DDOT>0</MEAN_MOTION_DDOT></tleParameters></data></segment></body></omm>
<omm id="CCSDS_OMM_VERS" version="2.0">
<header><CREATION_DATE/><ORIGINATOR/></header><body><segment><metadata><OBJECT_NAME>ONEWEB-0448</OBJECT_NAME><OBJECT_ID>2022-012V</OBJECT_ID><CENTER_NAME>EARTH</CENTER_NAME><REF_FRAME>TEME</REF_FRAME><TIME_SYSTEM>UTC</TIME_SYSTEM><MEAN_ELEMENT_THEORY>SGP4</MEAN_ELEMENT_THEORY></metadata><data><meanElements><EPOCH>2024-07-02T22:15:46.533888</EPOCH><MEAN_MOTION>13.10370183</MEAN_MOTION><ECCENTRICITY>.0002143</ECCENTRICITY><INCLINATION>87.8939</INCLINATION><RA_OF_ASC_NODE>178.3097</RA_OF_ASC_NODE><ARG_OF_PERICENTER>85.8565</ARG_OF_PERICENTER><MEAN_ANOMALY>274.2807</MEAN_ANOMALY></meanElements><tleParameters><EPHEMERIS_TYPE>0</EPHEMERIS_TYPE><CLASSIFICATION_TYPE>U</CLASSIFICATION_TYPE><NORAD_CAT_ID>51641</NORAD_CAT_ID><ELEMENT_SET_NO>999</ELEMENT_SET_NO><REV_AT_EPOCH>11575</REV_AT_EPOCH><BSTAR>-.16895E-2</BSTAR><MEAN_MOTION_DOT>-.577E-5</MEAN_MOTION_DOT><MEAN_MOTION_DDOT>0</MEAN_MOTION_DDOT></tleParameters></data></segment></body></omm>
<omm id="CCSDS_OMM_VERS" version="2.0">
<header><CREATION_DATE/><ORIGINATOR/></header><body><segment><metadata><OBJECT_NAME>ONEWEB-0449</OBJECT_NAME><OBJECT_ID>2022-012W</OBJECT_ID><CENTER_NAME>EARTH</CENTER_NAME><REF_FRAME>TEME</REF_FRAME><TIME_SYSTEM>UTC</TIME_SYSTEM><MEAN_ELEMENT_THEORY>SGP4</MEAN_ELEMENT_THEORY></metadata><data><meanElements><EPOCH>2024-07-02T22:22:57.554976</EPOCH><MEAN_MOTION>13.10374353</MEAN_MOTION><ECCENTRICITY>.0002095</ECCENTRICITY><INCLINATION>87.8935</INCLINATION><RA_OF_ASC_NODE>178.3031</RA_OF_ASC_NODE><ARG_OF_PERICENTER>95.9074</ARG_OF_PERICENTER><MEAN_ANOMALY>264.2292</MEAN_ANOMALY></meanElements><tleParameters><EPHEMERIS_TYPE>0</EPHEMERIS_TYPE><CLASSIFICATION_TYPE>U</CLASSIFICATION_TYPE><NORAD_CAT_ID>51642</NORAD_CAT_ID><ELEMENT_SET_NO>999</ELEMENT_SET_NO><REV_AT_EPOCH>11576</REV_AT_EPOCH><BSTAR>-.17204E-2</BSTAR><MEAN_MOTION_DOT>-.588E-5</MEAN_MOTION_DOT><MEAN_MOTION_DDOT>0</MEAN_MOTION_DDOT></tleParameters></data></segment></body></omm>
<omm id="CCSDS_OMM_VERS" version="2.0">
<header><CREATION_DATE/><ORIGINATOR/></header><body><segment><metadata><OBJECT_NAME>ONEWEB-0451</OBJECT_NAME><OBJECT_ID>2022-012X</OBJECT_ID><CENTER_NAME>EARTH</CENTER_NAME><REF_FRAME>TEME</REF_FRAME><TIME_SYSTEM>UTC</TIME_SYSTEM><MEAN_ELEMENT_THEORY>SGP4</MEAN_ELEMENT_THEORY></metadata><data><meanElements><EPOCH>2024-07-02T21:03:39.070656</EPOCH><MEAN_MOTION>13.17648169</MEAN_MOTION><ECCENTRICITY>.0002258</ECCENTRICITY><INCLINATION>87.9171</INCLINATION><RA_OF_ASC_NODE>148.0631</RA_OF_ASC_NODE><ARG_OF_PERICENTER>85.1652</ARG_OF_PERICENTER><MEAN_ANOMALY>274.9737</MEAN_ANOMALY></meanElements><tleParameters><EPHEMERIS_TYPE>0</EPHEMERIS_TYPE><CLASSIFICATION_TYPE>U</CLASSIFICATION_TYPE><NORAD_CAT_ID>51643</NORAD_CAT_ID><ELEMENT_SET_NO>999</ELEMENT_SET_NO><REV_AT_EPOCH>11959</REV_AT_EPOCH><BSTAR>-.39516E-4</BSTAR><MEAN_MOTION_DOT>-.2E-7</MEAN_MOTION_DOT><MEAN_MOTION_DDOT>0</MEAN_MOTION_DDOT></tleParameters></data></segment></body></omm>
<omm id="CCSDS_OMM_VERS" version="2.0">
<header><CREATION_DATE/><ORIGINATOR/></header><body><segment><metadata><OBJECT_NAME>ONEWEB-0452</OBJECT_NAME><OBJECT_ID>2022-012Y</OBJECT_ID><CENTER_NAME>EARTH</CENTER_NAME><REF_FRAME>TEME</REF_FRAME><TIME_SYSTEM>UTC</TIME_SYSTEM><MEAN_ELEMENT_THEORY>SGP4</MEAN_ELEMENT_THEORY></metadata><data><meanElements><EPOCH>2024-07-02T21:01:20.523072</EPOCH><MEAN_MOTION>13.17648870</MEAN_MOTION><ECCENTRICITY>.0002338</ECCENTRICITY><INCLINATION>87.9177</INCLINATION><RA_OF_ASC_NODE>148.1043</RA_OF_ASC_NODE><ARG_OF_PERICENTER>91.0777</ARG_OF_PERICENTER><MEAN_ANOMALY>269.0623</MEAN_ANOMALY></meanElements><tleParameters><EPHEMERIS_TYPE>0</EPHEMERIS_TYPE><CLASSIFICATION_TYPE>U</CLASSIFICATION_TYPE><NORAD_CAT_ID>51644</NORAD_CAT_ID><ELEMENT_SET_NO>999</ELEMENT_SET_NO><REV_AT_EPOCH>11960</REV_AT_EPOCH><BSTAR>.82118E-5</BSTAR><MEAN_MOTION_DOT>.16E-6</MEAN_MOTION_DOT><MEAN_MOTION_DDOT>0</MEAN_MOTION_DDOT></tleParameters></data></segment></body></omm>
<omm id="CCSDS_OMM_VERS" version="2.0">
<header><CREATION_DATE/><ORIGINATOR/></header><body><segment><metadata><OBJECT_NAME>ONEWEB-0456</OBJECT_NAME><OBJECT_ID>2022-012AA</OBJECT_ID><CENTER_NAME>EARTH</CENTER_NAME><REF_FRAME>TEME</REF_FRAME><TIME_SYSTEM>UTC</TIME_SYSTEM><MEAN_ELEMENT_THEORY>SGP4</MEAN_ELEMENT_THEORY></metadata><data><meanElements><EPOCH>2024-07-02T22:37:17.704128</EPOCH><MEAN_MOTION>13.10374588</MEAN_MOTION><ECCENTRICITY>.0001963</ECCENTRICITY><INCLINATION>87.8936</INCLINATION><RA_OF_ASC_NODE>178.2727</RA_OF_ASC_NODE><ARG_OF_PERICENTER>77.5650</ARG_OF_PERICENTER><MEAN_ANOMALY>282.5697</MEAN_ANOMALY></meanElements><tleParameters><EPHEMERIS_TYPE>0</EPHEMERIS_TYPE><CLASSIFICATION_TYPE>U</CLASSIFICATION_TYPE><NORAD_CAT_ID>51646</NORAD_CAT_ID><ELEMENT_SET_NO>999</ELEMENT_SET_NO><REV_AT_EPOCH>11580</REV_AT_EPOCH><BSTAR>-.12113E-2</BSTAR><MEAN_MOTION_DOT>-.41E-5</MEAN_MOTION_DOT><MEAN_MOTION_DDOT>0</MEAN_MOTION_DDOT></tleParameters></data></segment></body></omm>

</ndm>
